STARLINK-34419          
1 64412U 25129A   25197.46029857  .00030610  00000+0  69903-3 0  9990
2 64412  70.0000 313.6224 0003516 266.9840  93.0939 15.42735722  5812
STARLINK-34275          
1 64413U 25129B   25197.25002315  .00081599  00000+0  18496-2 0  9990
2 64413  69.9999 314.2105 0003297 267.0666 348.5388 15.42671603  5774
STARLINK-34225          
1 64414U 25129C   25197.47651462  .00018144  00000+0  41660-3 0  9994
2 64414  70.0009 313.6811 0003540 286.3091  73.7701 15.42719628  5815
STARLINK-34422          
1 64415U 25129D   25197.02569135  .00008848  00000+0  20509-3 0  9990
2 64415  70.0003 314.9181 0003387 266.7692  93.3102 15.42727853  5634
STARLINK-34514          
1 64416U 25129E   25197.48767501  .00021942  00000+0  50268-3 0  9993
2 64416  69.9985 313.7223 0003889 274.4280  85.6457 15.42729606  5816
STARLINK-34487          
1 64417U 25129F   25197.47146536  .00025625  00000+0  58610-3 0  9993
2 64417  70.0008 313.6654 0003376 269.9989  90.0806 15.42736206  5709
STARLINK-34461          
1 64418U 25129G   25197.50002315 -.00009361  00000+0 -21049-3 0  9991
2 64418  70.0001 313.4835 0003461 270.2431 338.3523 15.42729290  5815
STARLINK-34512          
1 64419U 25129H   25197.58335648 -.01508475  00000+0 -34021-1 0  9991
2 64419  70.0001 313.1575 0003752 272.2662 163.2781 15.46026056  5674
STARLINK-34503          
1 64420U 25129J   25197.25002315  .00102282  00000+0  23139-2 0  9991
2 64420  69.9999 314.1325 0003907 262.4043  60.1261 15.42636846  5611
STARLINK-34498          
1 64421U 25129K   25197.49181876  .00036108  00000+0  82314-3 0  9992
2 64421  70.0005 313.7380 0003594 272.9260  87.1511 15.42744645  5814
STARLINK-34434          
1 64422U 25129L   25197.48371290  .00057011  00000+0  12946-2 0  9992
2 64422  70.0007 313.7077 0003213 268.2488  91.8326 15.42736453  5812
STARLINK-34467          
1 64423U 25129M   25197.47560792  .00028634  00000+0  65432-3 0  9997
2 64423  69.9999 313.6779 0003431 269.5176  90.5613 15.42734203  5814
STARLINK-34468          
1 64424U 25129N   25196.91668981 -.00025538  00000+0 -58140-3 0  9995
2 64424  69.9999 315.1355 0003597 282.7863 259.0936 15.42725153  5819
STARLINK-34452          
1 64425U 25129P   25197.25002315  .00082211  00000+0  18636-2 0  9991
2 64425  69.9998 314.1843 0003316 270.7107   6.8819 15.42666391  5778
STARLINK-34432          
1 64426U 25129Q   25197.58335648  .00027725  00000+0  63474-3 0  9996
2 64426  70.0002 313.1796 0003428 268.3613 149.9577 15.42686112  5721
STARLINK-34480          
1 64427U 25129R   25196.08135375  .00033115  00000+0  54296-3 0  9998
2 64427  70.0007 317.2327 0003136 312.1912  47.9008 15.52302192  5605
STARLINK-34495          
1 64428U 25129S   25197.48965747  .00031476  00000+0  71869-3 0  9991
2 64428  69.9996 313.7286 0003820 272.2950  87.7795 15.42731676  5813
STARLINK-34501          
1 64429U 25129T   25197.48173776  .00018943  00000+0  43474-3 0  9990
2 64429  70.0001 313.7005 0004430 292.2013  67.8699 15.42718302  5816
STARLINK-34441          
1 64430U 25129U   25197.47759128  .00018602  00000+0  42675-3 0  9996
2 64430  70.0007 313.6852 0004198 280.6043  79.4665 15.42736526  5818
STARLINK-34524          
1 64431U 25129V   25197.47345020  .00025110  00000+0  57460-3 0  9999
2 64431  69.9997 313.6688 0003367 269.3661  90.7135 15.42727650  5702
STARLINK-34506          
1 64432U 25129W   25196.91668981 -.00013692  00000+0 -30972-3 0  9995
2 64432  69.9999 315.1469 0003613 271.1231 259.7630 15.42718766  5599
STARLINK-34451          
1 64433U 25129X   25197.58335648  .00018187  00000+0  41780-3 0  9992
2 64433  69.9999 313.2439 0003291 272.3700  89.9212 15.42704905  5670
STARLINK-34472          
1 64434U 25129Y   25197.46552136  .00047240  00000+0  10742-2 0  9998
2 64434  69.9998 313.6404 0003894 285.8589  74.2163 15.42746887  5812
STARLINK-34478          
1 64435U 25129Z   25197.58335648  .00017924  00000+0  41188-3 0  9994
2 64435  70.0000 313.2963 0003317 269.9826  47.3219 15.42700326  5724
STARLINK-34396          
1 64436U 25129AA  25197.44049035  .00027446  00000+0  62752-3 0  9992
2 64436  70.0003 313.5434 0003716 275.6694  84.4064 15.42728435  5769
STARLINK-34507          
1 64437U 25129AB  25197.50002315 -.00011809  00000+0 -26658-3 0  9993
2 64437  70.0002 313.4958 0003427 267.7012 328.9255 15.42720806  5812
STARLINK-34465          
1 64438U 25130A   25197.58335648  .00055184  00000+0  13811-2 0  9990
2 64438  53.1600 112.2074 0001034  96.3166 345.0994 15.39587176  5683
STARLINK-34456          
1 64439U 25130B   25197.58335648  .00066656  00000+0  16618-2 0  9995
2 64439  53.1603 112.1556 0000990 125.4439 341.6381 15.39620834  5690
STARLINK-34410          
1 64440U 25130C   25197.25002315  .00066744  00000+0  16670-2 0  9999
2 64440  53.1604 113.6771 0000874  68.4253  15.8922 15.39565157  5641
STARLINK-34453          
1 64441U 25130D   25197.25002315  .00065128  00000+0  16272-2 0  9993
2 64441  53.1602 113.6253 0000966  87.8138  22.3049 15.39565646  5583
STARLINK-34404          
1 64442U 25130E   25197.58335648 -.02330075  00000+0 -60903-1 0  9997
2 64442  53.1600 112.0041 0001732  67.5697 115.2911 15.41715940  5696
STARLINK-34403          
1 64443U 25130F   25197.47858171  .00030285  00000+0  55005-3 0  9992
2 64443  53.1607 112.4214 0001215  92.7247 267.3902 15.49330832  5675
STARLINK-34399          
1 64444U 25130G   25197.15570042  .00055031  00000+0  99040-3 0  9999
2 64444  53.1609 113.9620 0002230  39.8615 320.2558 15.49312188  5630
STARLINK-34398          
1 64445U 25130H   25197.58335648 -.01549535  00000+0 -37471-1 0  9996
2 64445  53.1600 111.9681 0001530  71.8937 129.5943 15.43733162  5633
STARLINK-34402          
1 64446U 25130J   25197.58335648 -.01555113  00000+0 -34616-1 0  9994
2 64446  53.1601 111.9428 0001383  79.5815 134.5145 15.46153498  5675
STARLINK-34450          
1 64447U 25130K   25197.47929199  .00084777  00000+0  15180-2 0  9999
2 64447  53.1606 112.4267 0003052  43.7303 316.3947 15.49266018  5663
STARLINK-34433          
1 64448U 25130L   25197.15638361  .00033424  00000+0  60596-3 0  9998
2 64448  53.1609 113.9664 0001392  55.2890 304.8250 15.49331822  5630
STARLINK-34459          
1 64449U 25130M   25197.15535365  .00038805  00000+0  70223-3 0  9995
2 64449  53.1611 113.9595 0001341  47.7507 312.3616 15.49312252  5638
STARLINK-34361          
1 64450U 25130N   25197.47755156  .00048066  00000+0  86674-3 0  9991
2 64450  53.1605 112.4145 0000958  83.7689 276.3429 15.49316361  5616
STARLINK-34392          
1 64451U 25130P   25197.09015687  .00017376  00000+0  31955-3 0  9990
2 64451  53.1610 114.2619 0001143  71.9266 288.1868 15.49328945  5626
STARLINK-34367          
1 64452U 25130Q   25197.58335648 -.01849452  00000+0 -47099-1 0  9992
2 64452  53.1602 111.9499 0001520 106.7124 102.3850 15.42255164  5686
STARLINK-34221          
1 64453U 25130R   25197.58335648  .00057551  00000+0  14398-2 0  9998
2 64453  53.1606 112.0463 0001356  85.1937  75.3452 15.39579925  5691
STARLINK-34282          
1 64454U 25130S   25197.47652820 -.00207469  00000+0 -40300-2 0  9990
2 64454  53.1607 112.4077 0002541  60.9619 299.1644 15.47793982  5513
STARLINK-34295          
1 64455U 25130T   25197.47582867  .00115007  00000+0  20495-2 0  9991
2 64455  53.1600 112.4025 0001042 116.9384 243.1732 15.49254488  5664
STARLINK-34430          
1 64456U 25130U   25197.47548969  .00032944  00000+0  59737-3 0  9997
2 64456  53.1608 112.4002 0001340  95.9227 264.1935 15.49334009  5656
STARLINK-34445          
1 64457U 25130V   25197.47514746  .00049035  00000+0  88396-3 0  9996
2 64457  53.1607 112.3977 0001114  90.3990 269.7147 15.49316141  5665
STARLINK-34439          
1 64458U 25130W   25197.47480352  .00035273  00000+0  63907-3 0  9992
2 64458  53.1608 112.3945 0001457  85.8035 274.3141 15.49323833  5652
STARLINK-34421          
1 64459U 25130X   25197.15191843  .00019048  00000+0  34946-3 0  9995
2 64459  53.1610 113.9351 0001369  77.7580 282.3582 15.49328551  5606
STARLINK-34423          
1 64460U 25130Y   25197.15157590  .00003550  00000+0  71839-4 0  9992
2 64460  53.1610 113.9334 0001539  73.2740 286.8438 15.49316361  5624
STARLINK-34418          
1 64461U 25130Z   25197.47377253  .00030081  00000+0  54640-3 0  9997
2 64461  53.1601 112.3897 0001200  93.9229 266.1917 15.49331461  5652
STARLINK-34336          
1 64462U 25130AA  25197.58335648 -.01205007  00000+0 -99164-2 0  9996
2 64462  53.1589 110.0714 0000796  79.0451 335.8553 15.72232633  5727
STARLINK-34400          
1 64463U 25130AB  25197.47274355  .00059951  00000+0  10773-2 0  9993
2 64463  53.1600 112.3827 0001317  87.9788 272.1372 15.49319860  5660
STARLINK-34429          
1 64464U 25130AC  25197.47308629  .00054968  00000+0  98876-3 0  9990
2 64464  53.1604 112.3836 0001167  91.2747 268.8395 15.49328292  5656
STARLINK-34449          
1 64465U 25130AD  25197.47242193  .00047542  00000+0  85726-3 0  9994
2 64465  53.1603 112.3785 0001108  71.9475 288.1655 15.49322314  5661
COSMOS 2589             
1 64467U 25131A   25196.77281203 -.00000279  00000+0  00000+0 0  9999
2 64467   0.9946 280.8629 3655360 173.8068 219.0819  1.00268214   254
BREEZE-M R/B            
1 64468U 25131B   25173.80781051 -.00000145  00000+0  00000+0 0  9997
2 64468   1.4224 285.7735 3876101 171.5822 241.3112  1.04440359    39
BREEZE-M DEB [TANK]     
1 64469U 25131C   25196.62557002  .00005542  00000+0  14124-2 0  9990
2 64469  61.0955 269.8495 6899674 178.8579 184.6611  2.77058199   650
CZ-3B R/B               
1 64470U 25132A   25197.52593472 -.00000240  00000+0  00000+0 0  9990
2 64470   0.0561 249.3789 0001705  33.1482 293.6069  1.00272261   793
CHINASAT 9C             
1 64471U 25132B   25196.69058101  .00017863  00000+0  18706-2 0  9996
2 64471  27.7572  85.8105 7325470 194.9251 118.0005  2.24748052   560
